SARSAT 7 (NOAA 15)      
1 25338U 98030A   22291.47723223  .00000131  00000+0  73090-4 0  9994
2 25338  98.6350 319.3529 0009397 302.0114  58.0152 14.26184038270800
GPS BIIR-08             
1 27663U 03005A   22290.65258391  .00000010  00000+0  00000+0 0  9995
2 27663  55.4352 268.2055 0127230  41.2712 126.5334  2.00557483144467
GPS BIIR-11             
1 28190U 04009A   22290.32122549 -.00000061  00000+0  00000+0 0  9992
2 28190  55.9264 329.2310 0088924 126.7561 316.2743  2.00557812136097
GPS BIIR-13             
1 28474U 04045A   22290.62640434 -.00000101  00000+0  00000+0 0  9993
2 28474  55.3882  18.5542 0203189 280.2030 246.6923  2.00421419131584
SARSAT 10 (NOAA 18)     
1 28654U 05018A   22291.43736903  .00000182  00000+0  12198-3 0  9994
2 28654  98.9382   1.7120 0013871 347.8677  12.2159 14.12792217897436
GPS BIIR-14M            
1 28874U 05038A   22290.18869507 -.00000057  00000+0  00000+0 0  9995
2 28874  55.9879 326.6753 0140475 275.6339  99.5996  2.00568273124986
METEOSAT-9 (MSG-2)      
1 28912U 05049B   22290.55654569  .00000131  00000+0  00000+0 0  9993
2 28912   6.2910  65.4688 0001913 188.0330  18.6053  1.00269180 61610
GOES 13                 
1 29155U 06018A   22291.41646638  .00000039  00000+0  00000+0 0  9991
2 29155   0.8863  94.8847 0006674 128.0928  15.3126  1.00270376 60091
GPS BIIR-16M            
1 29601U 06052A   22290.23383623  .00000011  00000+0  00000+0 0  9996
2 29601  55.4460 267.1654 0083120  75.0290 285.8836  2.00557728116556
GPS BIIR-17M            
1 32260U 07047A   22290.53916719  .00000030  00000+0  00000+0 0  9998
2 32260  53.3470 135.4827 0144539  65.3512 296.2246  2.00568405109961
GPS BIIR-18M            
1 32384U 07062A   22290.59591512 -.00000056  00000+0  00000+0 0  9997
2 32384  56.1103 327.4365 0020381 147.0999  21.6059  2.00568861108661
SARSAT 12 (NOAA 19)     
1 33591U 09005A   22291.52348833  .00000168  00000+0  11593-3 0  9993
2 33591  99.1365 328.1819 0013633 198.7792 161.2877 14.12624053705829
GOES 14                 
1 35491U 09033A   22291.46229829 -.00000093  00000+0  00000+0 0  9996
2 35491   0.3171 266.3828 0018280 311.2243 231.4651  1.00273578 48744
GOES 15                 
1 36411U 10008A   22291.49331226  .00000056  00000+0  00000+0 0  9999
2 36411   0.2766 278.6745 0003993 263.3034 254.2078  1.00270225 46245
GPS BIIF-2              
1 37753U 11036A   22290.62849704 -.00000096  00000+0  00000+0 0  9995
2 37753  56.6555  23.9546 0118252  53.4536 288.1627  2.00566180 82421
GSAT0101 (GALILEO-PFM)  
1 37846U 11060A   22289.08858949 -.00000100  00000+0  00000+0 0  9990
2 37846  57.0361  18.0631 0000552  45.6558 314.3789  1.70475096 68273
GSAT0102 (GALILEO-FM2)  
1 37847U 11060B   22286.06142152 -.00000106  00000+0  00000+0 0  9994
2 37847  57.0363  18.1449 0001808 302.7712  46.2467  1.70475407 68223
LUCH 5A                 
1 37951U 11074B   22291.21808929 -.00000042  00000+0  00000+0 0  9998
2 37951   5.3206  95.3446 0003400  94.5154  82.4601  1.00268681 39778
METEOSAT-10 (MSG-3)     
1 38552U 12035B   22290.76451865  .00000062  00000+0  00000+0 0  9997
2 38552   1.7151  47.4018 0001331 161.6523 101.6425  1.00274789 37430
SARSAT 13 (METOP-B)     
1 38771U 12049A   22291.46489969  .00000104  00000+0  67539-4 0  9991
2 38771  98.7155 349.4378 0001522  72.7550  43.2854 14.21483807523203
GPS BIIF-3              
1 38833U 12053A   22290.13963277 -.00000021  00000+0  00000+0 0  9991
2 38833  53.5212 198.3704 0130482  47.9633 313.1834  2.00563363 72580
GSAT0103 (GALILEO-FM3)  
1 38857U 12055A   22290.30094561  .00000043  00000+0  00000+0 0  9992
2 38857  55.1707 138.3481 0001876 242.0546 118.0104  1.70473877 62187
GSAT0104 (GALILEO-FM4)  
1 38858U 12055B   22290.27086493  .00000043  00000+0  00000+0 0  9994
2 38858  55.1707 138.3504 0001224 135.0598 225.0341  1.70474150 62186
GPS BIIF-4              
1 39166U 13023A   22290.49642965 -.00000050  00000+0  00000+0 0  9998
2 39166  55.6109 322.9879 0105026  38.2301 322.5639  2.00565476 69037
INSAT-3D                
1 39216U 13038B   22290.84970806 -.00000156  00000+0  00000+0 0  9994
2 39216   0.0842  94.2837 0002148 132.4865 187.5510  1.00272538 33678
GPS BIIF-5              
1 39533U 14008A   22290.49920573 -.00000023  00000+0  00000+0 0  9994
2 39533  53.6132 203.8750 0060488 209.5466 150.1457  2.00560393 62838
LUCH 5V                 
1 39727U 14023A   22291.36675760 -.00000267  00000+0  00000+0 0  9998
2 39727   1.7874  76.6041 0003216 152.1051  24.9512  1.00272968549093
GPS BIIF-6              
1 39741U 14026A   22290.78094029 -.00000096  00000+0  00000+0 0  9995
2 39741  56.6151  23.4744 0027072 304.6843  55.0877  2.00579977 61690
GPS BIIF-7              
1 40105U 14045A   22290.36678811  .00000026  00000+0  00000+0 0  9995
2 40105  54.7174 141.9360 0023744 111.5375 248.7961  2.00555666 59227
GSAT0201 (GALILEO 5)    
1 40128U 14050A   22288.40608565 -.00000087  00000+0  00000+0 0  9995
2 40128  50.2005 327.5019 1618984 128.4095 247.2901  1.85519483 53447
GSAT0202 (GALILEO 6)    
1 40129U 14050B   22289.20566221 -.00000080  00000+0  00000+0 0  9990
2 40129  50.2232 326.5340 1616055 129.2486 246.2623  1.85520186 55620
GPS BIIF-8              
1 40294U 14068A   22290.73264050  .00000014  00000+0  00000+0 0  9993
2 40294  55.9125  83.1089 0042659  58.5751 301.8514  2.00550089 58367
GLONASS-K 2             
1 40315U 14075A   22290.27727801  .00000011  00000+0  00000+0 0  9999
2 40315  63.6743 236.9053 0018912 211.7948 334.3144  2.13101342 61326
GPS BIIF-9              
1 40534U 15013A   22290.87805896  .00000003  00000+0  00000+0 0  9993
2 40534  53.6329 259.6212 0072117  20.2696 340.0040  2.00574720 54980
GSAT0203 (GALILEO 7)    
1 40544U 15017A   22285.93550568 -.00000106  00000+0  00000+0 0  9997
2 40544  56.8305  18.1657 0003959 230.8023 129.1881  1.70476263 46307
GSAT0204 (GALILEO 8)    
1 40545U 15017B   22285.01532855 -.00000107  00000+0  00000+0 0  9997
2 40545  56.8364  18.2038 0004113 215.6088 144.3868  1.70475797 46958
GPS BIIF-10             
1 40730U 15033A   22290.53673316 -.00000048  00000+0  00000+0 0  9996
2 40730  55.1064 321.7564 0075961   7.5344 352.6313  2.00571976 53149
METEOSAT-11 (MSG-4)     
1 40732U 15034A   22290.76268743 -.00000001  00000+0  00000+0 0  9997
2 40732   0.5557  74.3816 0000519  75.4053 151.0539  1.00278543 26606
GSAT0205 (GALILEO 9)    
1 40889U 15045A   22290.64856100  .00000006  00000+0  00000+0 0  9993
2 40889  55.5513 258.5869 0004520 356.2294   3.7472  1.70473133 44190
GSAT0206 (GALILEO 10)   
1 40890U 15045B   22290.28272487  .00000006  00000+0  00000+0 0  9995
2 40890  55.5501 258.5927 0003300 333.0003  26.9622  1.70473206 44218
GPS BIIF-11             
1 41019U 15062A   22290.58693029  .00000013  00000+0  00000+0 0  9998
2 41019  55.8998  82.9601 0081896 217.5799 141.8561  2.00562661 50985
ELEKTRO-L 2             
1 41105U 15074A   22290.90328321 -.00000112  00000+0  00000+0 0  9994
2 41105   3.2911  86.6586 0002889 123.6582 126.8222  1.00272280 25093
GSAT0209 (GALILEO 12)   
1 41174U 15079A   22291.04332556  .00000049  00000+0  00000+0 0  9994
2 41174  55.1880 138.0321 0002230 342.2788  17.7989  1.70474396 42542
GSAT0208 (GALILEO 11)   
1 41175U 15079B   22288.32990425  .00000032  00000+0  00000+0 0  9999
2 41175  55.1850 138.1052 0001644 352.4400   7.6418  1.70474253 42338
GPS BIIF-12             
1 41328U 16007A   22290.17598040  .00000024  00000+0  00000+0 0  9995
2 41328  54.9313 142.6444 0063065 229.6759 129.8512  2.00565227 48986
GSAT0211 (GALILEO 14)   
1 41549U 16030A   22290.20845435  .00000006  00000+0  00000+0 0  9993
2 41549  55.6955 258.5407 0004725 315.0858  44.8554  1.70474695 39846
GSAT0210 (GALILEO 13)   
1 41550U 16030B   22291.08758464  .00000006  00000+0  00000+0 0  9997
2 41550  55.6944 258.5180 0004407 288.5076  71.4246  1.70475827 39838
INSAT-3DR               
1 41752U 16054A   22291.41090931 -.00000076  00000+0  00000+0 0  9990
2 41752   0.1247  90.1652 0012944 174.1924 344.4639  1.00271931 22388
GSAT0207 (GALILEO 15)   
1 41859U 16069A   22290.16407193  .00000041  00000+0  00000+0 0  9998
2 41859  54.8482 138.2075 0001941 313.6347  46.4329  1.70472997 36797
GSAT0212 (GALILEO 16)   
1 41860U 16069B   22290.60407025  .00000045  00000+0  00000+0 0  9997
2 41860  54.8460 138.1926 0001857  19.7485 340.3432  1.70473028 36834
GSAT0213 (GALILEO 17)   
1 41861U 16069C   22289.79617670  .00000039  00000+0  00000+0 0  9998
2 41861  54.8480 138.2204 0001698 258.9029 101.1613  1.70473148 36681
GSAT0214 (GALILEO 18)   
1 41862U 16069D   22289.94334357  .00000040  00000+0  00000+0 0  9996
2 41862  54.8465 138.2108 0000768 263.0683  97.0064  1.70473077 36817
GOES 16                 
1 41866U 16071A   22291.46510875 -.00000248  00000+0  00000+0 0  9995
2 41866   0.0631 281.3174 0000888 336.4968 221.3908  1.00272414 21690
GSAT-17                 
1 42815U 17040B   22291.06825979 -.00000257  00000+0  00000+0 0  9997
2 42815   0.1131  90.7857 0005823 157.9500 255.8958  1.00271966 19452
GSAT0215 (GALILEO 19)   
1 43055U 17079A   22290.43305850  .00000006  00000+0  00000+0 0  9998
2 43055  55.6714 258.3652 0003827 283.6557  76.2814  1.70473906 30169
GSAT0216 (GALILEO 20)   
1 43056U 17079B   22288.96543551  .00000005  00000+0  00000+0 0  9995
2 43056  55.6727 258.4053 0005518 283.7532  76.1616  1.70474030 30150
GSAT0217 (GALILEO 21)   
1 43057U 17079C   22289.18570522  .00000005  00000+0  00000+0 0  9999
2 43057  55.6706 258.3988 0005080 293.6605  66.2631  1.70474047 30143
GSAT0218 (GALILEO 22)   
1 43058U 17079D   22290.57892090  .00000006  00000+0  00000+0 0  9993
2 43058  55.6697 258.3580 0005911 280.6696  79.2437  1.70473973 30190
GOES 17                 
1 43226U 18022A   22290.67896343  .00000098  00000+0  00000+0 0  9996
2 43226   0.0714 280.3917 0000481 316.9753 255.9004  1.00271899 17008
GSAT0221 (GALILEO 25)   
1 43564U 18060A   22286.95824672 -.00000104  00000+0  00000+0 0  9994
2 43564  57.2126  17.9836 0003818 252.5826 107.4038  1.70476253 26287
